[{"OBJECT_NAME":"STARLINK-32913","OBJECT_ID":"2025-037X","EPOCH":"2026-03-09T21:21:27.156096","MEAN_MOTION":14.98330525,"ECCENTRICITY":0.0002619,"INCLINATION":70.0039,"RA_OF_ASC_NODE":353.8791,"ARG_OF_PERICENTER":266.0186,"MEAN_ANOMALY":94.0674,"EPHEMERIS_TYPE":0,"CLASSIFICATION_TYPE":"U","NORAD_CAT_ID":63098,"ELEMENT_SET_NO":999,"REV_AT_EPOCH":5864,"BSTAR":0.00067472314,"MEAN_MOTION_DOT":7.967e-5,"MEAN_MOTION_DDOT":0},{"OBJECT_NAME":"CZ-6A DEB","OBJECT_ID":"2022-151NM","EPOCH":"2026-03-09T04:15:16.361280","MEAN_MOTION":14.99821734,"ECCENTRICITY":0.00563118,"INCLINATION":98.6044,"RA_OF_ASC_NODE":155.614,"ARG_OF_PERICENTER":130.481,"MEAN_ANOMALY":230.1339,"EPHEMERIS_TYPE":0,"CLASSIFICATION_TYPE":"U","NORAD_CAT_ID":54611,"ELEMENT_SET_NO":999,"REV_AT_EPOCH":17682,"BSTAR":0.0044540946,"MEAN_MOTION_DOT":0.00057345,"MEAN_MOTION_DDOT":0}]
